     3.02           N: GNSS NAV DATA    G: GPS              RINEX VERSION / TYPE
CHC                 CHC                 20250609 012159 UTC PGM / RUN BY / DATE 
    18                                                      LEAP SECONDS        
                                                            END OF HEADER       
G06 2025  6  9  1 59 44 -3.97569034249D-04 -1.77351466846D-11  0.00000000000D+00
      3.00000000000D+00 -5.09687500000D+01  3.85766068705D-09  1.33343738860D+00
     -2.59838998318D-06  3.33522073925D-03  1.80490314960D-06  5.15358452988D+03
      9.35840000000D+04  7.63684511185D-08  1.56156570870D+00  1.67638063431D-08
      9.88375688672D-01  3.57968750000D+02 -6.39806974734D-01 -7.97354641593D-09
     -4.46447167745D-11  0.00000000000D+00  2.37000000000D+03  0.00000000000D+00
      9.65000000000D+00  0.00000000000D+00  3.72529029846D-09  3.00000000000D+00
      9.35840000000D+04  0.00000000000D+00  0.00000000000D+00  0.00000000000D+00
G11 2025  6  9  2 14 40 -6.98254909366D-04  7.50333128963D-12  0.00000000000D+00
      7.50000000000D+01 -5.98125000000D+01  4.37839666351D-09  2.71047620352D+00
     -2.95042991638D-06  1.80136202835D-03  1.76765024662D-06  5.15367090797D+03
      9.44800000000D+04  1.86264514923D-09  1.58623467391D+00 -5.77419996262D-08
      9.65149849725D-01  3.46437500000D+02 -2.42426928372D+00 -8.21962809479D-09
     -1.67864135072D-11  0.00000000000D+00  2.37000000000D+03  0.00000000000D+00
      9.65000000000D+00  0.00000000000D+00 -8.84756445885D-09  3.31000000000D+02
      9.44800000000D+04  0.00000000000D+00  0.00000000000D+00  0.00000000000D+00
G14 2025  6  9  2  0  0  6.57070893794D-04  5.22959453519D-12  0.00000000000D+00
      2.28000000000D+02  4.13437500000D+01  4.66412285087D-09 -3.76828411570D-01
      1.93901360035D-06  5.90389047284D-03  9.74349677563D-06  5.15371963120D+03
      9.36000000000D+04  1.04308128357D-07 -5.34685730915D-01  8.38190317154D-08
      9.43730262565D-01  1.83937500000D+02 -2.79588820744D+00 -8.04140638542D-09
     -5.43594071446D-10  0.00000000000D+00  2.37000000000D+03  0.00000000000D+00
      9.65000000000D+00  0.00000000000D+00 -7.91624188423D-09  4.84000000000D+02
      9.36000000000D+04  0.00000000000D+00  0.00000000000D+00  0.00000000000D+00
G17 2025  6  9  2  0  0  2.43080314249D-04 -1.72803993337D-11  0.00000000000D+00
      2.90000000000D+01  1.11875000000D+02  4.20303221602D-09 -2.96290076364D+00
      5.83194196224D-06  1.30553495837D-02  4.31202352047D-06  5.15370365715D+03
      9.36000000000D+04  1.06170773506D-07  5.52056048607D-01  8.19563865662D-08
      9.63469047553D-01  2.99250000000D+02 -1.21145660640D+00 -7.80818238499D-09
      1.57863718515D-10  0.00000000000D+00  2.37000000000D+03  0.00000000000D+00
      9.65000000000D+00  0.00000000000D+00 -1.11758708954D-08  2.90000000000D+01
      9.36000000000D+04  0.00000000000D+00  0.00000000000D+00  0.00000000000D+00
G19 2025  6  9  2  0  0  6.36113341898D-04  3.41060513165D-12  0.00000000000D+00
      4.10000000000D+01  9.65000000000D+01  4.29267880730D-09 -1.10821752226D+00
      5.06639480591D-06  1.06265597278D-02  4.11830842495D-06  5.15364079475D+03
      9.36000000000D+04 -1.58324837685D-07  5.96139943850D-01 -1.69500708580D-07
      9.62659107347D-01  3.04750000000D+02  2.78595542232D+00 -8.08855120634D-09
      3.00726812193D-10  0.00000000000D+00  2.37000000000D+03  0.00000000000D+00
      9.65000000000D+00  0.00000000000D+00 -1.53668224812D-08  4.10000000000D+01
      9.36000000000D+04  0.00000000000D+00  0.00000000000D+00  0.00000000000D+00
G22 2025  6  9  2  0  0 -1.02746300399D-04  4.54747350886D-13  0.00000000000D+00
      9.90000000000D+01  5.79062500000D+01  4.12660046090D-09 -2.44110328394D+00
      2.93180346489D-06  1.31058715051D-02  1.02445483208D-05  5.15366026688D+03
      9.36000000000D+04  1.04308128357D-07 -4.63639112933D-01  2.17929482460D-07
      9.59127577753D-01  1.81906250000D+02 -1.06106869368D+00 -7.51852746256D-09
     -4.95020619596D-10  0.00000000000D+00  2.37000000000D+03  0.00000000000D+00
      9.65000000000D+00  0.00000000000D+00 -1.11758708954D-08  9.90000000000D+01
      9.36000000000D+04  0.00000000000D+00  0.00000000000D+00  0.00000000000D+00
G30 2025  6  9  2  0  0 -1.23628880829D-04  1.00044417195D-11  0.00000000000D+00
      8.50000000000D+01 -1.14687500000D+01  5.57773233494D-09  2.89199443072D-01
     -4.74974513054D-07  7.70577066578D-03  5.35696744919D-06  5.15366516113D+03
      9.36000000000D+04 -2.79396772385D-08 -1.60619149660D+00  3.35276126862D-08
      9.35199390374D-01  2.59468750000D+02 -2.36260304276D+00 -8.58250035273D-09
     -3.54657630057D-10  0.00000000000D+00  2.37000000000D+03  0.00000000000D+00
      9.65000000000D+00  0.00000000000D+00  3.72529029846D-09  8.50000000000D+01
      9.36000000000D+04  0.00000000000D+00  0.00000000000D+00  0.00000000000D+00
